ONEWEB-0321             
1 49191U 21083F   25319.49102330  .00000066  00000+0  12987-3 0  9991
2 49191  87.9185 317.0518 0002165  89.0179 271.1202 13.20773299208623
ONEWEB-0322             
1 49192U 21083G   25319.55342359 -.00000069  00000+0 -22264-3 0  9990
2 49192  87.8999   2.7185 0002330 100.7909 259.3482 13.13469688202875
ONEWEB-0324             
1 49193U 21083H   25319.61929998  .00000075  00000+0  15627-3 0  9998
2 49193  87.9216  17.8663 0001797  95.2122 264.9215 13.18688465201852
ONEWEB-0325             
1 49194U 21083J   25319.39496523  .00000056  00000+0  10859-3 0  9998
2 49194  87.9217  17.9296 0001885 100.5342 259.6003 13.18685176201839
ONEWEB-0326             
1 49195U 21083K   25319.56169998  .00000014  00000+0  39392-5 0  9990
2 49195  87.9217  17.8839 0001557 106.5755 253.5548 13.18688051201845
ONEWEB-0327             
1 49196U 21083L   25319.63730293  .00000058  00000+0  11456-3 0  9998
2 49196  87.9208  17.8905 0001555 110.6509 249.4790 13.18689012201875
ONEWEB-0328             
1 49197U 21083M   25319.54326573 -.00000334  00000+0 -94955-3 0  9995
2 49197  87.9015   2.6650 0001769  93.0891 267.0441 13.13470101202856
ONEWEB-0331             
1 49198U 21083N   25319.55497269  .00000041  00000+0  70058-4 0  9990
2 49198  87.9217  17.8778 0001460  98.6228 261.5070 13.18688149201857
ONEWEB-0333             
1 49199U 21083P   25319.53818808 -.00000354  00000+0 -10054-2 0  9992
2 49199  87.8995   2.7231 0001836  99.8263 260.3073 13.13469348202861
ONEWEB-0334             
1 49200U 21083Q   25319.50840265  .00000116  00000+0  25353-3 0  9997
2 49200  87.9177 317.0776 0002825  98.8306 261.3147 13.20772311208582
ONEWEB-0335             
1 49201U 21083R   25319.53310946 -.00000261  00000+0 -74851-3 0  9999
2 49201  87.9002   2.7128 0001603  97.8865 262.2446 13.13469347202873
ONEWEB-0336             
1 49202U 21083S   25319.50433101  .00000375  00000+0  99318-3 0  9995
2 49202  87.9001   2.7128 0001478  97.5441 262.5856 13.13468074202863
ONEWEB-0337             
1 49203U 21083T   25319.36198925  .00000194  00000+0  49583-3 0  9990
2 49203  87.9012   2.7523 0001714  91.4464 268.6861 13.13468506202847
ONEWEB-0338             
1 49204U 21083U   25319.48314149  .00000094  00000+0  19943-3 0  9998
2 49204  87.9180 317.0845 0002140  92.2476 267.8902 13.20771121208604
ONEWEB-0339             
1 49205U 21083V   25319.82766484 -.00000022  00000+0 -94714-4 0  9993
2 49205  87.9012   2.6419 0001932  94.0860 266.0490 13.13468587202886
ONEWEB-0340             
1 49206U 21083W   25319.61763976  .00000073  00000+0  15204-3 0  9994
2 49206  87.9218  17.8699 0001700 100.1344 259.9980 13.18689451201820
ONEWEB-0341             
1 49207U 21083X   25319.62423831 -.00000028  00000+0 -10298-3 0  9999
2 49207  87.9218  17.8806 0001785  82.9201 277.2134 13.18688707201842
