[{"OBJECT_NAME":"ONEWEB-0321","OBJECT_ID":"2021-083F","EPOCH":"2025-11-15T11:47:04.413120","MEAN_MOTION":13.20773299,"ECCENTRICITY":0.0002165,"INCLINATION":87.9185,"RA_OF_ASC_NODE":317.0518,"ARG_OF_PERICENTER":89.0179,"MEAN_ANOMALY":271.1202,"EPHEMERIS_TYPE":0,"CLASSIFICATION_TYPE":"U","NORAD_CAT_ID":49191,"ELEMENT_SET_NO":999,"REV_AT_EPOCH":20862,"BSTAR":0.00012987,"MEAN_MOTION_DOT":6.6e-7,"MEAN_MOTION_DDOT":0},{"OBJECT_NAME":"ONEWEB-0322","OBJECT_ID":"2021-083G","EPOCH":"2025-11-15T13:16:55.798176","MEAN_MOTION":13.13469688,"ECCENTRICITY":0.000233,"INCLINATION":87.8999,"RA_OF_ASC_NODE":2.7185,"ARG_OF_PERICENTER":100.7909,"MEAN_ANOMALY":259.3482,"EPHEMERIS_TYPE":0,"CLASSIFICATION_TYPE":"U","NORAD_CAT_ID":49192,"ELEMENT_SET_NO":999,"REV_AT_EPOCH":20287,"BSTAR":-0.00022264,"MEAN_MOTION_DOT":-6.9e-7,"MEAN_MOTION_DDOT":0},{"OBJECT_NAME":"ONEWEB-0324","OBJECT_ID":"2021-083H","EPOCH":"2025-11-15T14:51:47.518272","MEAN_MOTION":13.18688465,"ECCENTRICITY":0.0001797,"INCLINATION":87.9216,"RA_OF_ASC_NODE":17.8663,"ARG_OF_PERICENTER":95.2122,"MEAN_ANOMALY":264.9215,"EPHEMERIS_TYPE":0,"CLASSIFICATION_TYPE":"U","NORAD_CAT_ID":49193,"ELEMENT_SET_NO":999,"REV_AT_EPOCH":20185,"BSTAR":0.00015627,"MEAN_MOTION_DOT":7.5e-7,"MEAN_MOTION_DDOT":0},{"OBJECT_NAME":"ONEWEB-0325","OBJECT_ID":"2021-083J","EPOCH":"2025-11-15T09:28:44.995872","MEAN_MOTION":13.18685176,"ECCENTRICITY":0.0001885,"INCLINATION":87.9217,"RA_OF_ASC_NODE":17.9296,"ARG_OF_PERICENTER":100.5342,"MEAN_ANOMALY":259.6003,"EPHEMERIS_TYPE":0,"CLASSIFICATION_TYPE":"U","NORAD_CAT_ID":49194,"ELEMENT_SET_NO":999,"REV_AT_EPOCH":20183,"BSTAR":0.00010859,"MEAN_MOTION_DOT":5.6e-7,"MEAN_MOTION_DDOT":0},{"OBJECT_NAME":"ONEWEB-0326","OBJECT_ID":"2021-083K","EPOCH":"2025-11-15T13:28:50.878272","MEAN_MOTION":13.18688051,"ECCENTRICITY":0.0001557,"INCLINATION":87.9217,"RA_OF_ASC_NODE":17.8839,"ARG_OF_PERICENTER":106.5755,"MEAN_ANOMALY":253.5548,"EPHEMERIS_TYPE":0,"CLASSIFICATION_TYPE":"U","NORAD_CAT_ID":49195,"ELEMENT_SET_NO":999,"REV_AT_EPOCH":20184,"BSTAR":3.9392e-6,"MEAN_MOTION_DOT":1.4e-7,"MEAN_MOTION_DDOT":0},{"OBJECT_NAME":"ONEWEB-0327","OBJECT_ID":"2021-083L","EPOCH":"2025-11-15T15:17:42.973152","MEAN_MOTION":13.18689012,"ECCENTRICITY":0.0001555,"INCLINATION":87.9208,"RA_OF_ASC_NODE":17.8905,"ARG_OF_PERICENTER":110.6509,"MEAN_ANOMALY":249.479,"EPHEMERIS_TYPE":0,"CLASSIFICATION_TYPE":"U","NORAD_CAT_ID":49196,"ELEMENT_SET_NO":999,"REV_AT_EPOCH":20187,"BSTAR":0.00011456,"MEAN_MOTION_DOT":5.8e-7,"MEAN_MOTION_DDOT":0},{"OBJECT_NAME":"ONEWEB-0328","OBJECT_ID":"2021-083M","EPOCH":"2025-11-15T13:02:18.159072","MEAN_MOTION":13.13470101,"ECCENTRICITY":0.0001769,"INCLINATION":87.9015,"RA_OF_ASC_NODE":2.665,"ARG_OF_PERICENTER":93.0891,"MEAN_ANOMALY":267.0441,"EPHEMERIS_TYPE":0,"CLASSIFICATION_TYPE":"U","NORAD_CAT_ID":49197,"ELEMENT_SET_NO":999,"REV_AT_EPOCH":20285,"BSTAR":-0.00094955,"MEAN_MOTION_DOT":-3.34e-6,"MEAN_MOTION_DDOT":0},{"OBJECT_NAME":"ONEWEB-0331","OBJECT_ID":"2021-083N","EPOCH":"2025-11-15T13:19:09.640416","MEAN_MOTION":13.18688149,"ECCENTRICITY":0.000146,"INCLINATION":87.9217,"RA_OF_ASC_NODE":17.8778,"ARG_OF_PERICENTER":98.6228,"MEAN_ANOMALY":261.507,"EPHEMERIS_TYPE":0,"CLASSIFICATION_TYPE":"U","NORAD_CAT_ID":49198,"ELEMENT_SET_NO":999,"REV_AT_EPOCH":20185,"BSTAR":7.0058e-5,"MEAN_MOTION_DOT":4.1e-7,"MEAN_MOTION_DDOT":0},{"OBJECT_NAME":"ONEWEB-0333","OBJECT_ID":"2021-083P","EPOCH":"2025-11-15T12:54:59.450112","MEAN_MOTION":13.13469348,"ECCENTRICITY":0.0001836,"INCLINATION":87.8995,"RA_OF_ASC_NODE":2.7231,"ARG_OF_PERICENTER":99.8263,"MEAN_ANOMALY":260.3073,"EPHEMERIS_TYPE":0,"CLASSIFICATION_TYPE":"U","NORAD_CAT_ID":49199,"ELEMENT_SET_NO":999,"REV_AT_EPOCH":20286,"BSTAR":-0.0010054,"MEAN_MOTION_DOT":-3.54e-6,"MEAN_MOTION_DDOT":0},{"OBJECT_NAME":"ONEWEB-0334","OBJECT_ID":"2021-083Q","EPOCH":"2025-11-15T12:12:05.988960","MEAN_MOTION":13.20772311,"ECCENTRICITY":0.0002825,"INCLINATION":87.9177,"RA_OF_ASC_NODE":317.0776,"ARG_OF_PERICENTER":98.8306,"MEAN_ANOMALY":261.3147,"EPHEMERIS_TYPE":0,"CLASSIFICATION_TYPE":"U","NORAD_CAT_ID":49200,"ELEMENT_SET_NO":999,"REV_AT_EPOCH":20858,"BSTAR":0.00025353,"MEAN_MOTION_DOT":1.16e-6,"MEAN_MOTION_DDOT":0},{"OBJECT_NAME":"ONEWEB-0335","OBJECT_ID":"2021-083R","EPOCH":"2025-11-15T12:47:40.657344","MEAN_MOTION":13.13469347,"ECCENTRICITY":0.0001603,"INCLINATION":87.9002,"RA_OF_ASC_NODE":2.7128,"ARG_OF_PERICENTER":97.8865,"MEAN_ANOMALY":262.2446,"EPHEMERIS_TYPE":0,"CLASSIFICATION_TYPE":"U","NORAD_CAT_ID":49201,"ELEMENT_SET_NO":999,"REV_AT_EPOCH":20287,"BSTAR":-0.00074851,"MEAN_MOTION_DOT":-2.61e-6,"MEAN_MOTION_DDOT":0},{"OBJECT_NAME":"ONEWEB-0336","OBJECT_ID":"2021-083S","EPOCH":"2025-11-15T12:06:14.199264","MEAN_MOTION":13.13468074,"ECCENTRICITY":0.0001478,"INCLINATION":87.9001,"RA_OF_ASC_NODE":2.7128,"ARG_OF_PERICENTER":97.5441,"MEAN_ANOMALY":262.5856,"EPHEMERIS_TYPE":0,"CLASSIFICATION_TYPE":"U","NORAD_CAT_ID":49202,"ELEMENT_SET_NO":999,"REV_AT_EPOCH":20286,"BSTAR":0.00099318,"MEAN_MOTION_DOT":3.75e-6,"MEAN_MOTION_DDOT":0},{"OBJECT_NAME":"ONEWEB-0337","OBJECT_ID":"2021-083T","EPOCH":"2025-11-15T08:41:15.871200","MEAN_MOTION":13.13468506,"ECCENTRICITY":0.0001714,"INCLINATION":87.9012,"RA_OF_ASC_NODE":2.7523,"ARG_OF_PERICENTER":91.4464,"MEAN_ANOMALY":268.6861,"EPHEMERIS_TYPE":0,"CLASSIFICATION_TYPE":"U","NORAD_CAT_ID":49203,"ELEMENT_SET_NO":999,"REV_AT_EPOCH":20284,"BSTAR":0.00049583,"MEAN_MOTION_DOT":1.94e-6,"MEAN_MOTION_DDOT":0},{"OBJECT_NAME":"ONEWEB-0338","OBJECT_ID":"2021-083U","EPOCH":"2025-11-15T11:35:43.424736","MEAN_MOTION":13.20771121,"ECCENTRICITY":0.000214,"INCLINATION":87.918,"RA_OF_ASC_NODE":317.0845,"ARG_OF_PERICENTER":92.2476,"MEAN_ANOMALY":267.8902,"EPHEMERIS_TYPE":0,"CLASSIFICATION_TYPE":"U","NORAD_CAT_ID":49204,"ELEMENT_SET_NO":999,"REV_AT_EPOCH":20860,"BSTAR":0.00019943,"MEAN_MOTION_DOT":9.4e-7,"MEAN_MOTION_DDOT":0},{"OBJECT_NAME":"ONEWEB-0339","OBJECT_ID":"2021-083V","EPOCH":"2025-11-15T19:51:50.242176","MEAN_MOTION":13.13468587,"ECCENTRICITY":0.0001932,"INCLINATION":87.9012,"RA_OF_ASC_NODE":2.6419,"ARG_OF_PERICENTER":94.086,"MEAN_ANOMALY":266.049,"EPHEMERIS_TYPE":0,"CLASSIFICATION_TYPE":"U","NORAD_CAT_ID":49205,"ELEMENT_SET_NO":999,"REV_AT_EPOCH":20288,"BSTAR":-9.4714e-5,"MEAN_MOTION_DOT":-2.2e-7,"MEAN_MOTION_DDOT":0},{"OBJECT_NAME":"ONEWEB-0340","OBJECT_ID":"2021-083W","EPOCH":"2025-11-15T14:49:24.075264","MEAN_MOTION":13.18689451,"ECCENTRICITY":0.00017,"INCLINATION":87.9218,"RA_OF_ASC_NODE":17.8699,"ARG_OF_PERICENTER":100.1344,"MEAN_ANOMALY":259.998,"EPHEMERIS_TYPE":0,"CLASSIFICATION_TYPE":"U","NORAD_CAT_ID":49206,"ELEMENT_SET_NO":999,"REV_AT_EPOCH":20182,"BSTAR":0.00015204,"MEAN_MOTION_DOT":7.3e-7,"MEAN_MOTION_DDOT":0},{"OBJECT_NAME":"ONEWEB-0341","OBJECT_ID":"2021-083X","EPOCH":"2025-11-15T14:58:54.189984","MEAN_MOTION":13.18688707,"ECCENTRICITY":0.0001785,"INCLINATION":87.9218,"RA_OF_ASC_NODE":17.8806,"ARG_OF_PERICENTER":82.9201,"MEAN_ANOMALY":277.2134,"EPHEMERIS_TYPE":0,"CLASSIFICATION_TYPE":"U","NORAD_CAT_ID":49207,"ELEMENT_SET_NO":999,"REV_AT_EPOCH":20184,"BSTAR":-0.00010298,"MEAN_MOTION_DOT":-2.8e-7,"MEAN_MOTION_DDOT":0}]
